NORAD_CAT_ID,OBJECT_NAME,OBJECT_TYPE,EPOCH,MEAN_MOTION,ECCENTRICITY,INCLINATION,RA_OF_ASC_NODE,ARG_OF_PERICENTER,MEAN_ANOMALY,BSTAR,MEAN_MOTION_DOT,MEAN_MOTION_DDOT,TLE_LINE0,TLE_LINE1,TLE_LINE2,SEMIMAJOR_AXIS,PERIOD,APOGEE,PERIGEE,DECAYED
52991.0,STARLINK-4285,PAYLOAD,2023-11-23 01:37:57,15.08851602,0.0001744,53.2163,264.351,112.4603,247.6574,0.00025295,3.741e-05,0.0,0 STARLINK-4285,1 52991U 22076F   23327.06803154  .00003741  00000-0  25295-3 0  9998,2 52991  53.2163 264.3510 0001744 112.4603 247.6574 15.08851602 76725,6917.845,95.437,540.916,538.503,0.0
52991.0,STARLINK-4285,PAYLOAD,2023-11-23 19:07:12,15.08836197,0.0001774,53.2165,261.0803,114.717,245.4007,-8.1822e-05,-1.59e-05,0.0,0 STARLINK-4285,1 52991U 22076F   23327.79667637 -.00001590  00000-0 -81822-4 0  9993,2 52991  53.2165 261.0803 0001774 114.7170 245.4007 15.08836197 76834,6917.892,95.438,540.984,538.53,0.0
52991.0,STARLINK-4285,PAYLOAD,2023-11-24 03:04:09,15.08826334,0.000157,53.2169,259.5897,102.0936,258.0232,-0.00018455,-3.223e-05,0.0,0 STARLINK-4285,1 52991U 22076F   23328.12788693 -.00003223  00000-0 -18455-3 0  9993,2 52991  53.2169 259.5897 0001570 102.0936 258.0232 15.08826334 76884,6917.922,95.438,540.873,538.701,0.0
52991.0,STARLINK-4285,PAYLOAD,2023-11-24 18:58:00,15.08836231,0.0001689,53.2169,256.6159,120.3065,239.8094,-0.00010552,-1.967e-05,0.0,0 STARLINK-4285,1 52991U 22076F   23328.79028692 -.00001967  00000-0 -10552-3 0  9995,2 52991  53.2169 256.6159 0001689 120.3065 239.8094 15.08836231 76981,6917.892,95.438,540.925,538.588,0.0
52991.0,STARLINK-4285,PAYLOAD,2023-11-25 02:54:55,15.08857077,0.0001519,53.2169,255.132,101.8198,258.2964,0.00029417,4.399e-05,0.0,0 STARLINK-4285,1 52991U 22076F   23329.12147643  .00004399  00000-0  29417-3 0  9991,2 52991  53.2169 255.1320 0001519 101.8198 258.2964 15.08857077 77037,6917.828,95.436,540.744,538.642,0.0
52991.0,STARLINK-4285,PAYLOAD,2023-11-25 04:30:18,15.08861304,0.0001484,53.2167,254.8331,110.7197,249.3954,0.00035515,5.372e-05,0.0,0 STARLINK-4285,1 52991U 22076F   23329.18771380  .00005372  00000-0  35515-3 0  9996,2 52991  53.2167 254.8331 0001484 110.7197 249.3954 15.08861304 76578,6917.815,95.436,540.707,538.654,0.0
52991.0,STARLINK-4285,PAYLOAD,2023-11-25 18:48:47,15.08837833,0.0001338,53.2172,252.156,108.0611,252.0527,0.00026842,3.986e-05,0.0,0 STARLINK-4285,1 52991U 22076F   23329.78388822  .00003986  00000-0  26842-3 0  9999,2 52991  53.2172 252.1560 0001338 108.0611 252.0527 15.08837833 76665,6917.887,95.438,540.678,538.826,0.0
52991.0,STARLINK-4285,PAYLOAD,2023-11-26 01:10:19,15.08855681,0.0002056,53.2169,250.9716,108.9284,251.1931,0.00047296,7.25e-05,0.0,0 STARLINK-4285,1 52991U 22076F   23330.04884075  .00007250  00000-0  47296-3 0  9995,2 52991  53.2169 250.9716 0002056 108.9284 251.1931 15.08855681 77170,6917.832,95.437,541.12,538.275,0.0
52991.0,STARLINK-4285,PAYLOAD,2023-11-26 18:39:34,15.08837335,0.0001922,53.2167,247.6965,120.3302,239.7881,-0.00023843,-4.081e-05,0.0,0 STARLINK-4285,1 52991U 22076F   23330.77748396 -.00004081  00000-0 -23843-3 0  9993,2 52991  53.2167 247.6965 0001922 120.3302 239.7881 15.08837335 77281,6917.889,95.438,541.083,538.424,0.0
52991.0,STARLINK-4285,PAYLOAD,2023-11-27 01:01:07,15.08830446,0.0002117,53.2182,246.5049,137.5316,222.584,-0.00024042,-4.112e-05,0.0,0 STARLINK-4285,1 52991U 22076F   23331.04244890 -.00004112  00000-0 -24042-3 0  9991,2 52991  53.2182 246.5049 0002117 137.5316 222.5840 15.08830446 77327,6917.91,95.438,541.239,538.31,0.0
52991.0,STARLINK-4285,PAYLOAD,2023-11-27 21:41:08,15.08843417,0.0001888,53.2179,242.6378,134.6795,225.4351,0.00010872,1.443e-05,0.0,0 STARLINK-4285,1 52991U 22076F   23331.90356794  .00001443  00000-0  10872-3 0  9991,2 52991  53.2179 242.6378 0001888 134.6795 225.4351 15.08843417 76980,6917.87,95.437,541.041,538.429,0.0
52991.0,STARLINK-4285,PAYLOAD,2023-11-28 00:51:54,15.0885783,0.0001922,53.2167,242.0503,109.401,250.719,0.00048885,7.504e-05,0.0,0 STARLINK-4285,1 52991U 22076F   23332.03604488  .00007504  00000-0  48885-3 0  9991,2 52991  53.2167 242.0503 0001922 109.4010 250.7190 15.08857830 77471,6917.826,95.436,541.02,538.361,0.0
52991.0,STARLINK-4285,PAYLOAD,2023-11-28 18:21:09,15.0884337,0.0001678,53.2175,238.7709,118.8078,241.3083,0.00024986,3.691e-05,0.0,0 STARLINK-4285,1 52991U 22076F   23332.76469009  .00003691  00000-0  24986-3 0  9998,2 52991  53.2175 238.7709 0001678 118.8078 241.3083 15.08843370 77589,6917.87,95.437,540.896,538.574,0.0
52991.0,STARLINK-4285,PAYLOAD,2023-11-28 21:31:55,15.08844909,0.0001553,53.2167,238.1763,119.948,240.1666,0.00024947,3.685e-05,0.0,0 STARLINK-4285,1 52991U 22076F   23332.89716919  .00003685  00000-0  24947-3 0  9997,2 52991  53.2167 238.1763 0001553 119.9480 240.1666 15.08844909 77139,6917.865,95.437,540.805,538.656,0.0
52991.0,STARLINK-4285,PAYLOAD,2023-11-29 03:53:26,15.08897591,0.0001726,53.2167,236.9883,135.9306,224.1824,0.0012884,0.00020309,0.0,0 STARLINK-4285,1 52991U 22076F   23333.16210822  .00020309  00000-0  12884-2 0  9998,2 52991  53.2167 236.9883 0001726 135.9306 224.1824 15.08897591 77644,6917.704,95.434,540.763,538.375,0.0
52991.0,STARLINK-4285,PAYLOAD,2023-11-29 22:58:03,15.08867519,0.0001589,53.2163,233.4269,118.7904,241.3247,0.00023512,3.459e-05,0.0,0 STARLINK-4285,1 52991U 22076F   23333.95698353  .00003459  00000-0  23512-3 0  9992,2 52991  53.2163 233.4269 0001589 118.7904 241.3247 15.08867519 77760,6917.796,95.436,540.761,538.562,0.0
52991.0,STARLINK-4285,PAYLOAD,2023-12-01 03:35:02,15.08812162,0.0001889,53.2159,228.0734,89.9845,270.1364,-0.00045307,-7.486e-05,0.0,0 STARLINK-4285,1 52991U 22076F   23335.14933120 -.00007486  00000-0 -45307-3 0  9991,2 52991  53.2159 228.0734 0001889  89.9845 270.1364 15.08812162 77942,6917.965,95.439,541.137,538.524,0.0
52991.0,STARLINK-4285,PAYLOAD,2023-12-01 22:39:39,15.08841287,0.000223,53.2152,224.5001,108.1301,251.9934,0.00025227,3.729e-05,0.0,0 STARLINK-4285,1 52991U 22076F   23335.94421065  .00003729  00000-0  25227-3 0  9992,2 52991  53.2152 224.5001 0002230 108.1301 251.9934 15.08841287 77596,6917.876,95.437,541.284,538.199,0.0
52991.0,STARLINK-4285,PAYLOAD,2023-12-02 00:15:02,15.0885118,0.0001733,53.2152,224.2064,99.0597,261.0591,0.00069068,0.00010725,0.0,0 STARLINK-4285,1 52991U 22076F   23336.01044668  .00010725  00000-0  69068-3 0  9996,2 52991  53.2152 224.2064 0001733  99.0597 261.0591 15.08851180 78072,6917.846,95.437,540.91,538.512,0.0
52991.0,STARLINK-4285,PAYLOAD,2023-12-02 22:30:27,15.08835741,0.0001804,53.2153,220.0429,114.0082,246.1099,0.00028366,4.229e-05,0.0,0 STARLINK-4285,1 52991U 22076F   23336.93781933  .00004229  00000-0  28366-3 0  9998,2 52991  53.2153 220.0429 0001804 114.0082 246.1099 15.08835741 77743,6917.893,95.438,541.006,538.51,0.0
52991.0,STARLINK-4285,PAYLOAD,2023-12-03 00:05:51,15.08830313,0.0001907,53.2149,219.7501,71.1272,288.9927,0.00015272,2.143e-05,0.0,0 STARLINK-4285,1 52991U 22076F   23337.00406358  .00002143  00000-0  15272-3 0  9997,2 52991  53.2149 219.7501 0001907  71.1272 288.9927 15.08830313 78220,6917.91,95.438,541.094,538.456,0.0
52991.0,STARLINK-4285,PAYLOAD,2023-12-03 22:21:14,15.08836935,0.0001768,53.2142,215.5853,79.9639,280.1552,-3.3875e-05,-8.27e-06,0.0,0 STARLINK-4285,1 52991U 22076F   23337.93142332 -.00000827  00000-0 -33875-4 0  9997,2 52991  53.2142 215.5853 0001768  79.9639 280.1552 15.08836935 77891,6917.89,95.438,540.978,538.532,0.0
52991.0,STARLINK-4285,PAYLOAD,2023-12-04 19:01:15,15.08847479,0.0001867,53.2149,211.7181,75.3012,284.8186,0.00037464,5.681e-05,0.0,0 STARLINK-4285,1 52991U 22076F   23338.79254168  .00005681  00000-0  37464-3 0  9991,2 52991  53.2149 211.7181 0001867  75.3012 284.8186 15.08847479 78491,6917.858,95.437,541.014,538.431,0.0
52991.0,STARLINK-4285,PAYLOAD,2023-12-05 01:22:47,15.08854537,0.0001848,53.2152,210.5276,77.5825,282.5374,0.00041202,6.278e-05,0.0,0 STARLINK-4285,1 52991U 22076F   23339.05749571  .00006278  00000-0  41202-3 0  9996,2 52991  53.2152 210.5276 0001848  77.5825 282.5374 15.08854537 78062,6917.836,95.437,540.979,538.423,0.0
52991.0,STARLINK-4285,PAYLOAD,2023-12-06 01:13:34,15.08846648,0.0002092,53.2163,206.0655,83.8795,276.2436,8.0755e-05,9.97e-06,0.0,0 STARLINK-4285,1 52991U 22076F   23340.05109742  .00000997  00000-0  80755-4 0  9997,2 52991  53.2163 206.0655 0002092  83.8795 276.2436 15.08846648 78684,6917.86,95.437,541.172,538.278,0.0
52991.0,STARLINK-4285,PAYLOAD,2023-12-07 15:22:50,15.08838596,0.0002076,53.2159,198.9294,88.728,271.395,-3.9803e-05,-9.22e-06,0.0,0 STARLINK-4285,1 52991U 22076F   23341.64085826 -.00000922  00000-0 -39803-4 0  9997,2 52991  53.2159 198.9294 0002076  88.7280 271.3950 15.08838596 78929,6917.885,95.438,541.186,538.314,0.0
52991.0,STARLINK-4285,PAYLOAD,2023-12-08 00:55:09,15.08838107,0.0002149,53.215,197.1467,88.0159,272.1079,-1.623e-05,-5.47e-06,0.0,0 STARLINK-4285,1 52991U 22076F   23342.03829939 -.00000547  00000-0 -16230-4 0  9994,2 52991  53.2150 197.1467 0002149  88.0159 272.1079 15.08838107 78516,6917.886,95.438,541.238,538.265,0.0
52991.0,STARLINK-4285,PAYLOAD,2023-12-09 00:45:57,15.08826213,0.0001157,53.2149,192.6849,199.97,160.1247,-5.4568e-05,-1.156e-05,0.0,0 STARLINK-4285,1 52991U 22076F   23343.03191184 -.00001156  00000-0 -54568-4 0  9992,2 52991  53.2149 192.6849 0001157 199.9700 160.1247 15.08826213 79137,6917.923,95.438,540.588,538.987,0.0
52991.0,STARLINK-4285,PAYLOAD,2023-12-10 13:19:50,15.08828065,4.21e-05,53.2146,185.8471,106.8552,253.2487,5.6989e-05,6.19e-06,0.0,0 STARLINK-4285,1 52991U 22076F   23344.55544516  .00000619  00000-0  56989-4 0  9991,2 52991  53.2146 185.8471 0000421 106.8552 253.2487 15.08828065 78893,6917.917,95.438,540.073,539.491,0.0
52991.0,STARLINK-4285,PAYLOAD,2023-12-10 19:41:23,15.08825962,8.72e-05,53.2145,184.6567,107.4123,252.6964,0.00020831,3.028e-05,0.0,0 STARLINK-4285,1 52991U 22076F   23344.82041105  .00003028  00000-0  20831-3 0  9990,2 52991  53.2145 184.6567 0000872 107.4123 252.6964 15.08825962 79400,6917.923,95.438,540.392,539.185,0.0
